{"type": "FeatureCollection", "features": [ {"type": "Feature", "properties": {"norad_id": 41854, "name": "PROMETHEUS 2-1", "group": "active", "lat": 28.18712484855239, "lon": -151.52214184725293, "alt_km": 233.357032903883, "timestamp": "2025-12-01T03:58:49.245625+00:00", "meta": {"OBJECT_NAME": "PROMETHEUS 2-1", "OBJECT_ID": "2016-067G", "EPOCH": "2025-11-30T14:27:41.801760", "MEAN_MOTION": 16.11677115, "ECCENTRICITY": 0.0004075, "INCLINATION": 98.0219, "RA_OF_ASC_NODE": 212.1252, "ARG_OF_PERICENTER": 102.6204, "MEAN_ANOMALY": 257.5534, "EPHEMERIS_TYPE": 0, "CLASSIFICATION_TYPE": "U", "NORAD_CAT_ID": 41854, "ELEMENT_SET_NO": 999, "REV_AT_EPOCH": 49758, "BSTAR": 0.0020107, "MEAN_MOTION_DOT": 0.01962392, "MEAN_MOTION_DDOT": 0.0035228, "GROUP": "active"}, "tle": {"line1": "1 41854U 16067G   25334.60256715  .01962392  35228-2  20107-2 0  9997", "line2": "2 41854  98.0219 212.1252 0004075 102.6204 257.5534 16.11677115497589"}}, "geometry": {"type": "Point", "coordinates": [-151.52214184725293, 28.18712484855239]}}, {"type": "Feature", "properties": {"norad_id": 41855, "name": "PROMETHEUS 2-3", "group": "active", "lat": -7.340293987155455, "lon": -147.15951479287932, "alt_km": 236.23604007631093, "timestamp": "2025-12-01T03:58:49.245634+00:00", "meta": {"OBJECT_NAME": "PROMETHEUS 2-3", "OBJECT_ID": "2016-067H", "EPOCH": "2025-11-30T14:37:16.678848", "MEAN_MOTION": 16.12887876, "ECCENTRICITY": 0.0003744, "INCLINATION": 98.0164, "RA_OF_ASC_NODE": 211.1201, "ARG_OF_PERICENTER": 101.9991, "MEAN_ANOMALY": 258.1712, "EPHEMERIS_TYPE": 0, "CLASSIFICATION_TYPE": "U", "NORAD_CAT_ID": 41855, "ELEMENT_SET_NO": 999, "REV_AT_EPOCH": 49758, "BSTAR": 0.0020869, "MEAN_MOTION_DOT": 0.02152971, "MEAN_MOTION_DDOT": 0.0049501, "GROUP": "active"}, "tle": {"line1": "1 41855U 16067H   25334.60922082  .02152971  49501-2  20869-2 0  9994", "line2": "2 41855  98.0164 211.1201 0003744 101.9991 258.1712 16.12887876497582"}}, "geometry": {"type": "Point", "coordinates": [-147.15951479287932, -7.340293987155455]}}, {"type": "Feature", "properties": {"norad_id": 41857, "name": "YUNHAI-1 01", "group": "active", "lat": -34.31506409872922, "lon": -11.10570516612724, "alt_km": 787.9688872336319, "timestamp": "2025-12-01T03:58:49.245644+00:00", "meta": {"OBJECT_NAME": "YUNHAI-1 01", "OBJECT_ID": "2016-068A", "EPOCH": "2025-11-30T21:26:14.868096", "MEAN_MOTION": 14.32631185, "ECCENTRICITY": 0.0004495, "INCLINATION": 98.5893, "RA_OF_ASC_NODE": 342.703, "ARG_OF_PERICENTER": 257.2089, "MEAN_ANOMALY": 102.8593, "EPHEMERIS_TYPE": 0, "CLASSIFICATION_TYPE": "U", "NORAD_CAT_ID": 41857, "ELEMENT_SET_NO": 999, "REV_AT_EPOCH": 47343, "BSTAR": 0.00014374, "MEAN_MOTION_DOT": 3.46e-06, "MEAN_MOTION_DDOT": 0, "GROUP": "active"}, "tle": {"line1": "1 41857U 16068A   25334.89322764  .00000346  00000+0  14374-3 0  9998", "line2": "2 41857  98.5893 342.7030 0004495 257.2089 102.8593 14.32631185473436"}}, "geometry": {"type": "Point", "coordinates": [-11.10570516612724, -34.31506409872922]}}, {"type": "Feature", "properties": {"norad_id": 41869, "name": "TIANLIAN 1-04", "group": "active", "lat": -0.24786144369582833, "lon": -52.84981595010858, "alt_km": 35902.4297760195, "timestamp": "2025-12-01T03:58:49.245656+00:00", "meta": {"OBJECT_NAME": "TIANLIAN 1-04", "OBJECT_ID": "2016-072A", "EPOCH": "2025-11-30T19:49:13.662048", "MEAN_MOTION": 1.00272282, "ECCENTRICITY": 0.0045499, "INCLINATION": 0.3554, "RA_OF_ASC_NODE": 83.0849, "ARG_OF_PERICENTER": 96.1114, "MEAN_ANOMALY": 4.8378, "EPHEMERIS_TYPE": 0, "CLASSIFICATION_TYPE": "U", "NORAD_CAT_ID": 41869, "ELEMENT_SET_NO": 999, "REV_AT_EPOCH": 3331, "BSTAR": 0, "MEAN_MOTION_DOT": 5.3e-07, "MEAN_MOTION_DDOT": 0, "GROUP": "active"}, "tle": {"line1": "1 41869U 16072A   25334.82585257  .00000053  00000+0  00000+0 0  9999", "line2": "2 41869   0.3554  83.0849 0045499  96.1114   4.8378  1.00272282 33316"}}, "geometry": {"type": "Point", "coordinates": [-52.84981595010858, -0.24786144369582833]}}, {"type": "Feature", "properties": {"norad_id": 41879, "name": "WGS F8 (USA 272)", "group": "active", "lat": 0.0013505132210384482, "lon": -80.23821218308916, "alt_km": 35785.30151265836, "timestamp": "2025-12-01T03:58:49.245668+00:00", "meta": {"OBJECT_NAME": "WGS F8 (USA 272)", "OBJECT_ID": "2016-075A", "EPOCH": "2025-11-30T14:56:38.617152", "MEAN_MOTION": 1.00269502, "ECCENTRICITY": 3.6e-05, "INCLINATION": 0.013, "RA_OF_ASC_NODE": 91.5947, "ARG_OF_PERICENTER": 204.2952, "MEAN_ANOMALY": 147.828, "EPHEMERIS_TYPE": 0, "CLASSIFICATION_TYPE": "U", "NORAD_CAT_ID": 41879, "ELEMENT_SET_NO": 999, "REV_AT_EPOCH": 3282, "BSTAR": 0, "MEAN_MOTION_DOT": -1.81e-06, "MEAN_MOTION_DDOT": 0, "GROUP": "active"}, "tle": {"line1": "1 41879U 16075A   25334.62266918 -.00000181  00000+0  00000+0 0  9994", "line2": "2 41879   0.0130  91.5947 0000360 204.2952 147.8280  1.00269502 32823"}}, "geometry": {"type": "Point", "coordinates": [-80.23821218308916, 0.0013505132210384482]}}, {"type": "Feature", "properties": {"norad_id": 41893, "name": "ECHOSTAR 19", "group": "active", "lat": 0.03386795805466396, "lon": 32.84646089555576, "alt_km": 35792.385747462096, "timestamp": "2025-12-01T03:58:49.245681+00:00", "meta": {"OBJECT_NAME": "ECHOSTAR 19", "OBJECT_ID": "2016-079A", "EPOCH": "2025-11-30T15:05:37.345344", "MEAN_MOTION": 1.00269087, "ECCENTRICITY": 0.0001653, "INCLINATION": 0.0181, "RA_OF_ASC_NODE": 335.9167, "ARG_OF_PERICENTER": 274.7437, "MEAN_ANOMALY": 308.381, "EPHEMERIS_TYPE": 0, "CLASSIFICATION_TYPE": "U", "NORAD_CAT_ID": 41893, "ELEMENT_SET_NO": 999, "REV_AT_EPOCH": 3271, "BSTAR": 0, "MEAN_MOTION_DOT": 0, "MEAN_MOTION_DDOT": 0, "GROUP": "active"}, "tle": {"line1": "1 41893U 16079A   25334.62890446  .00000000  00000+0  00000+0 0  9992", "line2": "2 41893   0.0181 335.9167 0001653 274.7437 308.3810  1.00269087 32719"}}, "geometry": {"type": "Point", "coordinates": [32.84646089555576, 0.03386795805466396]}}, {"type": "Feature", "properties": {"norad_id": 41896, "name": "ARASE (ERG)", "group": "active", "lat": 23.107864653774495, "lon": -137.05236847774015, "alt_km": 25151.97772751527, "timestamp": "2025-12-01T03:58:49.245693+00:00", "meta": {"OBJECT_NAME": "ARASE (ERG)", "OBJECT_ID": "2016-080A", "EPOCH": "2025-11-28T22:42:30.771072", "MEAN_MOTION": 2.57213993, "ECCENTRICITY": 0.69906373, "INCLINATION": 31.5002, "RA_OF_ASC_NODE": 88.0427, "ARG_OF_PERICENTER": 285.1176, "MEAN_ANOMALY": 12.4398, "EPHEMERIS_TYPE": 0, "CLASSIFICATION_TYPE": "U", "NORAD_CAT_ID": 41896, "ELEMENT_SET_NO": 999, "REV_AT_EPOCH": 8312, "BSTAR": 0.00083316552, "MEAN_MOTION_DOT": 4.26e-06, "MEAN_MOTION_DDOT": 0, "GROUP": "active"}, "tle": {"line1": "1 41896U 16080A   25332.94618948  .00000426  00000+0  83317-3 0  9993", "line2": "2 41896  31.5002  88.0427 6990637 285.1176  12.4398  2.57213993 83122"}}, "geometry": {"type": "Point", "coordinates": [-137.05236847774015, 23.107864653774495]}}, {"type": "Feature", "properties": {"norad_id": 41898, "name": "TANSAT", "group": "active", "lat": -13.429877411379518, "lon": -33.24076934432883, "alt_km": 710.5852552442557, "timestamp": "2025-12-01T03:58:49.245704+00:00", "meta": {"OBJECT_NAME": "TANSAT", "OBJECT_ID": "2016-081A", "EPOCH": "2025-11-30T21:27:44.460576", "MEAN_MOTION": 14.59762355, "ECCENTRICITY": 0.0020068, "INCLINATION": 98.5276, "RA_OF_ASC_NODE": 324.4269, "ARG_OF_PERICENTER": 198.841, "MEAN_ANOMALY": 161.2049, "EPHEMERIS_TYPE": 0, "CLASSIFICATION_TYPE": "U", "NORAD_CAT_ID": 41898, "ELEMENT_SET_NO": 999, "REV_AT_EPOCH": 47569, "BSTAR": 8.9128e-05, "MEAN_MOTION_DOT": 3.76e-06, "MEAN_MOTION_DDOT": 0, "GROUP": "active"}, "tle": {"line1": "1 41898U 16081A   25334.89426459  .00000376  00000+0  89128-4 0  9997", "line2": "2 41898  98.5276 324.4269 0020068 198.8410 161.2049 14.59762355475697"}}, "geometry": {"type": "Point", "coordinates": [-33.24076934432883, -13.429877411379518]}}, {"type": "Feature", "properties": {"norad_id": 41899, "name": "YIJIAN", "group": "active", "lat": 75.70102692055599, "lon": -73.94224532156178, "alt_km": 691.8321206365463, "timestamp": "2025-12-01T03:58:49.245713+00:00", "meta": {"OBJECT_NAME": "YIJIAN", "OBJECT_ID": "2016-081B", "EPOCH": "2025-11-30T12:49:18.925248", "MEAN_MOTION": 14.60406876, "ECCENTRICITY": 0.0020431, "INCLINATION": 98.5261, "RA_OF_ASC_NODE": 321.4644, "ARG_OF_PERICENTER": 200.309, "MEAN_ANOMALY": 159.7299, "EPHEMERIS_TYPE": 0, "CLASSIFICATION_TYPE": "U", "NORAD_CAT_ID": 41899, "ELEMENT_SET_NO": 999, "REV_AT_EPOCH": 47559, "BSTAR": 0.00018426, "MEAN_MOTION_DOT": 8.44e-06, "MEAN_MOTION_DDOT": 0, "GROUP": "active"}, "tle": {"line1": "1 41899U 16081B   25334.53424682  .00000844  00000+0  18426-3 0  9997", "line2": "2 41899  98.5261 321.4644 0020431 200.3090 159.7299 14.60406876475596"}}, "geometry": {"type": "Point", "coordinates": [-73.94224532156178, 75.70102692055599]}}, {"type": "Feature", "properties": {"norad_id": 41900, "name": "SPARK 1", "group": "active", "lat": -32.49598688611217, "lon": -35.72507316920527, "alt_km": 708.657995516257, "timestamp": "2025-12-01T03:58:49.245723+00:00", "meta": {"OBJECT_NAME": "SPARK 1", "OBJECT_ID": "2016-081C", "EPOCH": "2025-11-30T13:19:21.357120", "MEAN_MOTION": 14.59463414, "ECCENTRICITY": 0.0023097, "INCLINATION": 98.5343, "RA_OF_ASC_NODE": 318.1584, "ARG_OF_PERICENTER": 211.0245, "MEAN_ANOMALY": 148.9591, "EPHEMERIS_TYPE": 0, "CLASSIFICATION_TYPE": "U", "NORAD_CAT_ID": 41900, "ELEMENT_SET_NO": 999, "REV_AT_EPOCH": 47529, "BSTAR": 0.00015526, "MEAN_MOTION_DOT": 6.88e-06, "MEAN_MOTION_DDOT": 0, "GROUP": "active"}, "tle": {"line1": "1 41900U 16081C   25334.55510830  .00000688  00000+0  15526-3 0  9997", "line2": "2 41900  98.5343 318.1584 0023097 211.0245 148.9591 14.59463414475299"}}, "geometry": {"type": "Point", "coordinates": [-35.72507316920527, -32.49598688611217]}}]}